ONEWEB-0144             
1 47290U 20100AJ  25334.61645659  .00000403  00000+0  10850-2 0  9996
2 47290  87.8949  30.0816 0001688  87.5527 272.5795 13.12443464238523
ONEWEB-0145             
1 47291U 20100AK  25334.58725730 -.00000214  00000+0 -63037-3 0  9990
2 47291  87.8959  30.1250 0001719  97.3282 262.8042 13.12444277238711
ONEWEB-0146             
1 47292U 20100AL  25334.58401154 -.00000265  00000+0 -77125-3 0  9991
2 47292  87.8952  30.1120 0002023 106.5952 253.5399 13.12444045238622
ONEWEB-0147             
1 47293U 20100AM  25334.62618427  .00000130  00000+0  32563-3 0  9996
2 47293  87.8954  30.0820 0001946  92.1131 268.0221 13.12441979238520
ONEWEB-0115             
1 48042U 21025A   25334.50455369 -.00000031  00000+0 -12069-3 0  9998
2 48042  87.8997 359.7058 0001771  95.0118 265.1213 13.13471013227516
ONEWEB-0152             
1 48043U 21025B   25334.59427871  .00000198  00000+0  50745-3 0  9990
2 48043  87.8986 359.6963 0001908  97.2919 262.8427 13.13470261227485
ONEWEB-0153             
1 48044U 21025C   25334.34373439 -.00000154  00000+0 -45747-3 0  9994
2 48044  87.8991 359.7504 0001724  93.5873 266.5454 13.13470009227445
ONEWEB-0154             
1 48045U 21025D   25334.49270242 -.00000267  00000+0 -76488-3 0  9990
2 48045  87.8989 359.7172 0001828  92.6886 267.4452 13.13470429227425
